CCSDS_OMM_VERS = 2.0
CREATION_DATE  = 
ORIGINATOR     = 

OBJECT_NAME    = STARLINK-35599
OBJECT_ID      = 2025-236S
CENTER_NAME    = EARTH
REF_FRAME      = TEME
TIME_SYSTEM    = UTC
MEAN_ELEMENT_THEORY = SGP/SGP4

EPOCH          = 2025-11-08T19:32:04.771104
MEAN_MOTION    = 15.74369170
ECCENTRICITY   = .000061
INCLINATION    = 53.1568
RA_OF_ASC_NODE = 308.4948
ARG_OF_PERICENTER = 326.7710
MEAN_ANOMALY   = 33.3272

EPHEMERIS_TYPE = 0
CLASSIFICATION_TYPE = U
NORAD_CAT_ID   = 66102
ELEMENT_SET_NO = 999
REV_AT_EPOCH   = 433
BSTAR          = .30242E-2
MEAN_MOTION_DOT = .471681E-2
MEAN_MOTION_DDOT = 0

CCSDS_OMM_VERS = 2.0
CREATION_DATE  = 
ORIGINATOR     = 

OBJECT_NAME    = STARLINK-35622
OBJECT_ID      = 2025-236T
CENTER_NAME    = EARTH
REF_FRAME      = TEME
TIME_SYSTEM    = UTC
MEAN_ELEMENT_THEORY = SGP/SGP4

EPOCH          = 2025-11-08T19:31:05.874816
MEAN_MOTION    = 15.74371697
ECCENTRICITY   = .0000461
INCLINATION    = 53.1571
RA_OF_ASC_NODE = 308.4906
ARG_OF_PERICENTER = 314.9438
MEAN_ANOMALY   = 45.1544

EPHEMERIS_TYPE = 0
CLASSIFICATION_TYPE = U
NORAD_CAT_ID   = 66103
ELEMENT_SET_NO = 999
REV_AT_EPOCH   = 439
BSTAR          = .29873E-2
MEAN_MOTION_DOT = .465632E-2
MEAN_MOTION_DDOT = 0

CCSDS_OMM_VERS = 2.0
CREATION_DATE  = 
ORIGINATOR     = 

OBJECT_NAME    = STARLINK-35452
OBJECT_ID      = 2025-236U
CENTER_NAME    = EARTH
REF_FRAME      = TEME
TIME_SYSTEM    = UTC
MEAN_ELEMENT_THEORY = SGP/SGP4

EPOCH          = 2025-11-08T19:31:35.037408
MEAN_MOTION    = 15.74402279
ECCENTRICITY   = .0001421
INCLINATION    = 53.1568
RA_OF_ASC_NODE = 308.4920
ARG_OF_PERICENTER = 154.1483
MEAN_ANOMALY   = 205.9608

EPHEMERIS_TYPE = 0
CLASSIFICATION_TYPE = U
NORAD_CAT_ID   = 66104
ELEMENT_SET_NO = 999
REV_AT_EPOCH   = 439
BSTAR          = .31715E-2
MEAN_MOTION_DOT = .496857E-2
MEAN_MOTION_DDOT = 0

CCSDS_OMM_VERS = 2.0
CREATION_DATE  = 
ORIGINATOR     = 

OBJECT_NAME    = STARLINK-35561
OBJECT_ID      = 2025-236V
CENTER_NAME    = EARTH
REF_FRAME      = TEME
TIME_SYSTEM    = UTC
MEAN_ELEMENT_THEORY = SGP/SGP4

EPOCH          = 2025-11-08T19:30:36.798624
MEAN_MOTION    = 15.74299420
ECCENTRICITY   = .0000957
INCLINATION    = 53.1573
RA_OF_ASC_NODE = 308.4882
ARG_OF_PERICENTER = 136.6192
MEAN_ANOMALY   = 223.4903

EPHEMERIS_TYPE = 0
CLASSIFICATION_TYPE = U
NORAD_CAT_ID   = 66105
ELEMENT_SET_NO = 999
REV_AT_EPOCH   = 433
BSTAR          = .14073E-2
MEAN_MOTION_DOT = .211737E-2
MEAN_MOTION_DDOT = 0

CCSDS_OMM_VERS = 2.0
CREATION_DATE  = 
ORIGINATOR     = 

OBJECT_NAME    = STARLINK-35584
OBJECT_ID      = 2025-236W
CENTER_NAME    = EARTH
REF_FRAME      = TEME
TIME_SYSTEM    = UTC
MEAN_ELEMENT_THEORY = SGP/SGP4

EPOCH          = 2025-11-08T19:30:07.813152
MEAN_MOTION    = 15.74262540
ECCENTRICITY   = .0001269
INCLINATION    = 53.1573
RA_OF_ASC_NODE = 308.4851
ARG_OF_PERICENTER = 115.7799
MEAN_ANOMALY   = 244.3352

EPHEMERIS_TYPE = 0
CLASSIFICATION_TYPE = U
NORAD_CAT_ID   = 66106
ELEMENT_SET_NO = 999
REV_AT_EPOCH   = 439
BSTAR          = .14519E-2
MEAN_MOTION_DOT = .218303E-2
MEAN_MOTION_DDOT = 0

CCSDS_OMM_VERS = 2.0
CREATION_DATE  = 
ORIGINATOR     = 

OBJECT_NAME    = STARLINK-35593
OBJECT_ID      = 2025-236X
CENTER_NAME    = EARTH
REF_FRAME      = TEME
TIME_SYSTEM    = UTC
MEAN_ELEMENT_THEORY = SGP/SGP4

EPOCH          = 2025-11-08T19:29:38.660064
MEAN_MOTION    = 15.74269431
ECCENTRICITY   = .0001292
INCLINATION    = 53.1573
RA_OF_ASC_NODE = 308.4827
ARG_OF_PERICENTER = 4.0237
MEAN_ANOMALY   = 356.0793

EPHEMERIS_TYPE = 0
CLASSIFICATION_TYPE = U
NORAD_CAT_ID   = 66107
ELEMENT_SET_NO = 999
REV_AT_EPOCH   = 439
BSTAR          = .13878E-2
MEAN_MOTION_DOT = .20845E-2
MEAN_MOTION_DDOT = 0

CCSDS_OMM_VERS = 2.0
CREATION_DATE  = 
ORIGINATOR     = 

OBJECT_NAME    = STARLINK-35590
OBJECT_ID      = 2025-236Y
CENTER_NAME    = EARTH
REF_FRAME      = TEME
TIME_SYSTEM    = UTC
MEAN_ELEMENT_THEORY = SGP/SGP4

EPOCH          = 2025-11-08T19:28:39.747360
MEAN_MOTION    = 15.74411437
ECCENTRICITY   = .0000386
INCLINATION    = 53.1572
RA_OF_ASC_NODE = 308.4782
ARG_OF_PERICENTER = 117.0563
MEAN_ANOMALY   = 243.0496

EPHEMERIS_TYPE = 0
CLASSIFICATION_TYPE = U
NORAD_CAT_ID   = 66108
ELEMENT_SET_NO = 999
REV_AT_EPOCH   = 433
BSTAR          = .32378E-2
MEAN_MOTION_DOT = .508221E-2
MEAN_MOTION_DDOT = 0

CCSDS_OMM_VERS = 2.0
CREATION_DATE  = 
ORIGINATOR     = 

OBJECT_NAME    = STARLINK-35545
OBJECT_ID      = 2025-236Z
CENTER_NAME    = EARTH
REF_FRAME      = TEME
TIME_SYSTEM    = UTC
MEAN_ELEMENT_THEORY = SGP/SGP4

EPOCH          = 2025-11-08T19:29:09.220128
MEAN_MOTION    = 15.74290571
ECCENTRICITY   = .0000517
INCLINATION    = 53.1574
RA_OF_ASC_NODE = 308.4805
ARG_OF_PERICENTER = 54.8939
MEAN_ANOMALY   = 305.2130

EPHEMERIS_TYPE = 0
CLASSIFICATION_TYPE = U
NORAD_CAT_ID   = 66109
ELEMENT_SET_NO = 999
REV_AT_EPOCH   = 439
BSTAR          = .13238E-2
MEAN_MOTION_DOT = .198762E-2
MEAN_MOTION_DDOT = 0

CCSDS_OMM_VERS = 2.0
CREATION_DATE  = 
ORIGINATOR     = 

OBJECT_NAME    = STARLINK-35427
OBJECT_ID      = 2025-236AA
CENTER_NAME    = EARTH
REF_FRAME      = TEME
TIME_SYSTEM    = UTC
MEAN_ELEMENT_THEORY = SGP/SGP4

EPOCH          = 2025-11-08T19:28:10.487136
MEAN_MOTION    = 15.74391870
ECCENTRICITY   = .0001101
INCLINATION    = 53.1573
RA_OF_ASC_NODE = 308.4754
ARG_OF_PERICENTER = 143.2530
MEAN_ANOMALY   = 216.8566

EPHEMERIS_TYPE = 0
CLASSIFICATION_TYPE = U
NORAD_CAT_ID   = 66110
ELEMENT_SET_NO = 999
REV_AT_EPOCH   = 439
BSTAR          = .28924E-2
MEAN_MOTION_DOT = .450343E-2
MEAN_MOTION_DDOT = 0

CCSDS_OMM_VERS = 2.0
CREATION_DATE  = 
ORIGINATOR     = 

OBJECT_NAME    = STARLINK-35574
OBJECT_ID      = 2025-236AB
CENTER_NAME    = EARTH
REF_FRAME      = TEME
TIME_SYSTEM    = UTC
MEAN_ELEMENT_THEORY = SGP/SGP4

EPOCH          = 2025-11-08T19:27:41.287392
MEAN_MOTION    = 15.74375158
ECCENTRICITY   = .0001611
INCLINATION    = 53.1571
RA_OF_ASC_NODE = 308.4738
ARG_OF_PERICENTER = 146.8220
MEAN_ANOMALY   = 213.2901

EPHEMERIS_TYPE = 0
CLASSIFICATION_TYPE = U
NORAD_CAT_ID   = 66111
ELEMENT_SET_NO = 999
REV_AT_EPOCH   = 433
BSTAR          = .2746E-2
MEAN_MOTION_DOT = .425937E-2
MEAN_MOTION_DDOT = 0

CCSDS_OMM_VERS = 2.0
CREATION_DATE  = 
ORIGINATOR     = 

OBJECT_NAME    = STARLINK-35531
OBJECT_ID      = 2025-236AC
CENTER_NAME    = EARTH
REF_FRAME      = TEME
TIME_SYSTEM    = UTC
MEAN_ELEMENT_THEORY = SGP/SGP4

EPOCH          = 2025-11-08T19:26:43.503072
MEAN_MOTION    = 15.74282702
ECCENTRICITY   = .0002077
INCLINATION    = 53.1576
RA_OF_ASC_NODE = 308.4690
ARG_OF_PERICENTER = 131.5897
MEAN_ANOMALY   = 228.5301

EPHEMERIS_TYPE = 0
CLASSIFICATION_TYPE = U
NORAD_CAT_ID   = 66112
ELEMENT_SET_NO = 999
REV_AT_EPOCH   = 439
BSTAR          = .13594E-2
MEAN_MOTION_DOT = .204181E-2
MEAN_MOTION_DDOT = 0

CCSDS_OMM_VERS = 2.0
CREATION_DATE  = 
ORIGINATOR     = 

OBJECT_NAME    = STARLINK-35491
OBJECT_ID      = 2025-236AD
CENTER_NAME    = EARTH
REF_FRAME      = TEME
TIME_SYSTEM    = UTC
MEAN_ELEMENT_THEORY = SGP/SGP4

EPOCH          = 2025-11-08T19:27:12.657024
MEAN_MOTION    = 15.74283971
ECCENTRICITY   = .0001748
INCLINATION    = 53.1576
RA_OF_ASC_NODE = 308.4712
ARG_OF_PERICENTER = 105.0270
MEAN_ANOMALY   = 255.0943

EPHEMERIS_TYPE = 0
CLASSIFICATION_TYPE = U
NORAD_CAT_ID   = 66113
ELEMENT_SET_NO = 999
REV_AT_EPOCH   = 439
BSTAR          = .12819E-2
MEAN_MOTION_DOT = .192246E-2
MEAN_MOTION_DDOT = 0

