STARLINK-35599          
1 66102U 25236S   25312.81394411  .00471681  00000+0  30242-2 0  9996
2 66102  53.1568 308.4948 0000610 326.7710  33.3272 15.74369170  4337
STARLINK-35622          
1 66103U 25236T   25312.81326244  .00465632  00000+0  29873-2 0  9993
2 66103  53.1571 308.4906 0000461 314.9438  45.1544 15.74371697  4392
STARLINK-35452          
1 66104U 25236U   25312.81359997  .00496857  00000+0  31715-2 0  9996
2 66104  53.1568 308.4920 0001421 154.1483 205.9608 15.74402279  4394
STARLINK-35561          
1 66105U 25236V   25312.81292591  .00211737  00000+0  14073-2 0  9993
2 66105  53.1573 308.4882 0000957 136.6192 223.4903 15.74299420  4332
STARLINK-35584          
1 66106U 25236W   25312.81259043  .00218303  00000+0  14519-2 0  9990
2 66106  53.1573 308.4851 0001269 115.7799 244.3352 15.74262540  4396
STARLINK-35593          
1 66107U 25236X   25312.81225301  .00208450  00000+0  13878-2 0  9990
2 66107  53.1573 308.4827 0001292   4.0237 356.0793 15.74269431  4399
STARLINK-35590          
1 66108U 25236Y   25312.81157115  .00508221  00000+0  32378-2 0  9993
2 66108  53.1572 308.4782 0000386 117.0563 243.0496 15.74411437  4333
STARLINK-35545          
1 66109U 25236Z   25312.81191227  .00198762  00000+0  13238-2 0  9995
2 66109  53.1574 308.4805 0000517  54.8939 305.2130 15.74290571  4399
STARLINK-35427          
1 66110U 25236AA  25312.81123249  .00450343  00000+0  28924-2 0  9990
2 66110  53.1573 308.4754 0001101 143.2530 216.8566 15.74391870  4397
STARLINK-35574          
1 66111U 25236AB  25312.81089453  .00425937  00000+0  27460-2 0  9994
2 66111  53.1571 308.4738 0001611 146.8220 213.2901 15.74375158  4338
STARLINK-35531          
1 66112U 25236AC  25312.81022573  .00204181  00000+0  13594-2 0  9994
2 66112  53.1576 308.4690 0002077 131.5897 228.5301 15.74282702  4390
STARLINK-35491          
1 66113U 25236AD  25312.81056316  .00192246  00000+0  12819-2 0  9994
2 66113  53.1576 308.4712 0001748 105.0270 255.0943 15.74283971  4397
